ODIN                    
1 26702U 01007A   26068.66272157  .00042500  00000+0  55361-3 0  9996
2 26702  97.4078 104.7066 0004579 141.3699 218.7886 15.58615471373833
2024-125A               
1 60203U 24125A   26068.55426199  .00048428  00000+0  70017-3 0  9991
2 60203  97.2433 284.9987 0011386 215.4363 144.6137 15.55711721 94094
