[{"OBJECT_NAME":"ODIN","OBJECT_ID":"2001-007A","EPOCH":"2026-03-09T15:54:19.144512","MEAN_MOTION":15.58615472,"ECCENTRICITY":0.00045789,"INCLINATION":97.4078,"RA_OF_ASC_NODE":104.7066,"ARG_OF_PERICENTER":141.3699,"MEAN_ANOMALY":218.7886,"EPHEMERIS_TYPE":0,"CLASSIFICATION_TYPE":"U","NORAD_CAT_ID":26702,"ELEMENT_SET_NO":999,"REV_AT_EPOCH":37383,"BSTAR":0.00055360612,"MEAN_MOTION_DOT":0.000425,"MEAN_MOTION_DDOT":0},{"OBJECT_NAME":"OBJECT A","OBJECT_ID":"2024-125A","EPOCH":"2026-03-09T13:18:08.235936","MEAN_MOTION":15.55711721,"ECCENTRICITY":0.00113867,"INCLINATION":97.2433,"RA_OF_ASC_NODE":284.9987,"ARG_OF_PERICENTER":215.4363,"MEAN_ANOMALY":144.6137,"EPHEMERIS_TYPE":0,"CLASSIFICATION_TYPE":"U","NORAD_CAT_ID":60203,"ELEMENT_SET_NO":999,"REV_AT_EPOCH":9409,"BSTAR":0.0007001684,"MEAN_MOTION_DOT":0.00048428,"MEAN_MOTION_DDOT":0}]
